[{"OBJECT_NAME":"STARLINK-36901","OBJECT_ID":"2026-038P","EPOCH":"2026-03-05T06:00:02.999808","MEAN_MOTION":16.02826231,"ECCENTRICITY":0.00012154,"INCLINATION":97.2748,"RA_OF_ASC_NODE":74.1851,"ARG_OF_PERICENTER":68.271,"MEAN_ANOMALY":82.7957,"EPHEMERIS_TYPE":0,"CLASSIFICATION_TYPE":"U","NORAD_CAT_ID":67974,"ELEMENT_SET_NO":999,"REV_AT_EPOCH":248,"BSTAR":-0.0024762123,"MEAN_MOTION_DOT":-0.01466062,"MEAN_MOTION_DDOT":0.00068739914},{"OBJECT_NAME":"STARLINK-36883","OBJECT_ID":"2026-038Q","EPOCH":"2026-03-05T06:00:02.999808","MEAN_MOTION":16.03443623,"ECCENTRICITY":0.00012476,"INCLINATION":97.2741,"RA_OF_ASC_NODE":74.1905,"ARG_OF_PERICENTER":69.1223,"MEAN_ANOMALY":94.358,"EPHEMERIS_TYPE":0,"CLASSIFICATION_TYPE":"U","NORAD_CAT_ID":67975,"ELEMENT_SET_NO":999,"REV_AT_EPOCH":248,"BSTAR":-0.0022921688,"MEAN_MOTION_DOT":-0.0140796,"MEAN_MOTION_DDOT":0.00064234426},{"OBJECT_NAME":"STARLINK-36880","OBJECT_ID":"2026-038R","EPOCH":"2026-03-05T06:00:02.999808","MEAN_MOTION":16.03092649,"ECCENTRICITY":0.00012365,"INCLINATION":97.2744,"RA_OF_ASC_NODE":74.1873,"ARG_OF_PERICENTER":75.531,"MEAN_ANOMALY":80.5599,"EPHEMERIS_TYPE":0,"CLASSIFICATION_TYPE":"U","NORAD_CAT_ID":67976,"ELEMENT_SET_NO":999,"REV_AT_EPOCH":248,"BSTAR":-0.0024312104,"MEAN_MOTION_DOT":-0.01462149,"MEAN_MOTION_DDOT":0.00068614074},{"OBJECT_NAME":"STARLINK-36904","OBJECT_ID":"2026-038S","EPOCH":"2026-03-05T06:00:02.999808","MEAN_MOTION":16.03348818,"ECCENTRICITY":0.00013207,"INCLINATION":97.2741,"RA_OF_ASC_NODE":74.1891,"ARG_OF_PERICENTER":70.5319,"MEAN_ANOMALY":90.4572,"EPHEMERIS_TYPE":0,"CLASSIFICATION_TYPE":"U","NORAD_CAT_ID":67977,"ELEMENT_SET_NO":999,"REV_AT_EPOCH":248,"BSTAR":-0.0023847516,"MEAN_MOTION_DOT":-0.01456099,"MEAN_MOTION_DDOT":0.00068294012},{"OBJECT_NAME":"STARLINK-36364","OBJECT_ID":"2026-038T","EPOCH":"2026-03-05T06:00:02.999808","MEAN_MOTION":16.03718741,"ECCENTRICITY":0.00010627,"INCLINATION":97.2736,"RA_OF_ASC_NODE":74.1929,"ARG_OF_PERICENTER":88.3301,"MEAN_ANOMALY":80.9318,"EPHEMERIS_TYPE":0,"CLASSIFICATION_TYPE":"U","NORAD_CAT_ID":67978,"ELEMENT_SET_NO":999,"REV_AT_EPOCH":248,"BSTAR":-0.0021774554,"MEAN_MOTION_DOT":-0.01359955,"MEAN_MOTION_DDOT":0.00060429024},{"OBJECT_NAME":"STARLINK-36359","OBJECT_ID":"2026-038U","EPOCH":"2026-03-05T06:00:02.999808","MEAN_MOTION":16.03197569,"ECCENTRICITY":0.00010833,"INCLINATION":97.2742,"RA_OF_ASC_NODE":74.1876,"ARG_OF_PERICENTER":80.588,"MEAN_ANOMALY":77.5898,"EPHEMERIS_TYPE":0,"CLASSIFICATION_TYPE":"U","NORAD_CAT_ID":67979,"ELEMENT_SET_NO":999,"REV_AT_EPOCH":248,"BSTAR":-0.0024119602,"MEAN_MOTION_DOT":-0.0145955,"MEAN_MOTION_DDOT":0.00068472249},{"OBJECT_NAME":"STARLINK-36882","OBJECT_ID":"2026-038V","EPOCH":"2026-03-05T06:00:02.999808","MEAN_MOTION":16.03644657,"ECCENTRICITY":0.00012349,"INCLINATION":97.2737,"RA_OF_ASC_NODE":74.1915,"ARG_OF_PERICENTER":70.8448,"MEAN_ANOMALY":95.6221,"EPHEMERIS_TYPE":0,"CLASSIFICATION_TYPE":"U","NORAD_CAT_ID":67980,"ELEMENT_SET_NO":999,"REV_AT_EPOCH":248,"BSTAR":-0.0023324775,"MEAN_MOTION_DOT":-0.0144936,"MEAN_MOTION_DDOT":0.00067946074},{"OBJECT_NAME":"STARLINK-36874","OBJECT_ID":"2026-038W","EPOCH":"2026-03-05T06:00:02.999808","MEAN_MOTION":16.03891038,"ECCENTRICITY":0.00012241,"INCLINATION":97.2736,"RA_OF_ASC_NODE":74.1937,"ARG_OF_PERICENTER":67.7197,"MEAN_ANOMALY":103.5215,"EPHEMERIS_TYPE":0,"CLASSIFICATION_TYPE":"U","NORAD_CAT_ID":67981,"ELEMENT_SET_NO":999,"REV_AT_EPOCH":248,"BSTAR":-0.0022881523,"MEAN_MOTION_DOT":-0.01442823,"MEAN_MOTION_DDOT":0.00067576043},{"OBJECT_NAME":"STARLINK-36879","OBJECT_ID":"2026-038X","EPOCH":"2026-03-05T06:00:02.999808","MEAN_MOTION":16.04019541,"ECCENTRICITY":0.00011379,"INCLINATION":97.2734,"RA_OF_ASC_NODE":74.1947,"ARG_OF_PERICENTER":75.3224,"MEAN_ANOMALY":98.3825,"EPHEMERIS_TYPE":0,"CLASSIFICATION_TYPE":"U","NORAD_CAT_ID":67982,"ELEMENT_SET_NO":999,"REV_AT_EPOCH":248,"BSTAR":-0.0022681729,"MEAN_MOTION_DOT":-0.01441195,"MEAN_MOTION_DDOT":0.00067537886},{"OBJECT_NAME":"STARLINK-36867","OBJECT_ID":"2026-038Y","EPOCH":"2026-03-05T06:00:02.999808","MEAN_MOTION":16.04293421,"ECCENTRICITY":0.00012467,"INCLINATION":97.2733,"RA_OF_ASC_NODE":74.1971,"ARG_OF_PERICENTER":68.0859,"MEAN_ANOMALY":110.6056,"EPHEMERIS_TYPE":0,"CLASSIFICATION_TYPE":"U","NORAD_CAT_ID":67983,"ELEMENT_SET_NO":999,"REV_AT_EPOCH":248,"BSTAR":-0.0022333704,"MEAN_MOTION_DOT":-0.01442455,"MEAN_MOTION_DDOT":0.00067870217},{"OBJECT_NAME":"STARLINK-36266","OBJECT_ID":"2026-038Z","EPOCH":"2026-03-05T06:00:02.999808","MEAN_MOTION":16.04176247,"ECCENTRICITY":0.00011884,"INCLINATION":97.2733,"RA_OF_ASC_NODE":74.196,"ARG_OF_PERICENTER":70.4879,"MEAN_ANOMALY":105.9435,"EPHEMERIS_TYPE":0,"CLASSIFICATION_TYPE":"U","NORAD_CAT_ID":67984,"ELEMENT_SET_NO":999,"REV_AT_EPOCH":245,"BSTAR":-0.0022591362,"MEAN_MOTION_DOT":-0.01448838,"MEAN_MOTION_DDOT":0.00068333022},{"OBJECT_NAME":"STARLINK-36802","OBJECT_ID":"2026-038AA","EPOCH":"2026-03-05T06:00:02.999808","MEAN_MOTION":16.04396234,"ECCENTRICITY":0.00011869,"INCLINATION":97.273,"RA_OF_ASC_NODE":74.1976,"ARG_OF_PERICENTER":76.9567,"MEAN_ANOMALY":103.8067,"EPHEMERIS_TYPE":0,"CLASSIFICATION_TYPE":"U","NORAD_CAT_ID":67985,"ELEMENT_SET_NO":999,"REV_AT_EPOCH":248,"BSTAR":-0.0021945317,"MEAN_MOTION_DOT":-0.01426284,"MEAN_MOTION_DDOT":0.00066545686},{"OBJECT_NAME":"STARLINK-36535","OBJECT_ID":"2026-039A","EPOCH":"2026-03-05T06:00:02.999808","MEAN_MOTION":15.97255116,"ECCENTRICITY":0.00014506,"INCLINATION":42.9977,"RA_OF_ASC_NODE":82.4945,"ARG_OF_PERICENTER":271.9121,"MEAN_ANOMALY":239.9616,"EPHEMERIS_TYPE":0,"CLASSIFICATION_TYPE":"U","NORAD_CAT_ID":67986,"ELEMENT_SET_NO":999,"REV_AT_EPOCH":216,"BSTAR":-0.0033662635,"MEAN_MOTION_DOT":-0.01530125,"MEAN_MOTION_DDOT":0.00069376215},{"OBJECT_NAME":"STARLINK-36744","OBJECT_ID":"2026-039B","EPOCH":"2026-03-05T06:00:02.999808","MEAN_MOTION":15.97365578,"ECCENTRICITY":0.00015618,"INCLINATION":42.9975,"RA_OF_ASC_NODE":82.4909,"ARG_OF_PERICENTER":268.2055,"MEAN_ANOMALY":245.0377,"EPHEMERIS_TYPE":0,"CLASSIFICATION_TYPE":"U","NORAD_CAT_ID":67987,"ELEMENT_SET_NO":999,"REV_AT_EPOCH":216,"BSTAR":-0.0033014622,"MEAN_MOTION_DOT":-0.01510172,"MEAN_MOTION_DDOT":0.00067799036},{"OBJECT_NAME":"STARLINK-36734","OBJECT_ID":"2026-039C","EPOCH":"2026-03-05T06:00:02.999808","MEAN_MOTION":15.97513133,"ECCENTRICITY":0.00015834,"INCLINATION":42.9977,"RA_OF_ASC_NODE":82.4865,"ARG_OF_PERICENTER":271.2287,"MEAN_ANOMALY":243.6877,"EPHEMERIS_TYPE":0,"CLASSIFICATION_TYPE":"U","NORAD_CAT_ID":67988,"ELEMENT_SET_NO":999,"REV_AT_EPOCH":216,"BSTAR":-0.0032813867,"MEAN_MOTION_DOT":-0.01513307,"MEAN_MOTION_DDOT":0.00068162844},{"OBJECT_NAME":"STARLINK-36957","OBJECT_ID":"2026-039D","EPOCH":"2026-03-05T06:00:02.999808","MEAN_MOTION":15.97640341,"ECCENTRICITY":0.00014919,"INCLINATION":42.9975,"RA_OF_ASC_NODE":82.4828,"ARG_OF_PERICENTER":272.4984,"MEAN_ANOMALY":243.7417,"EPHEMERIS_TYPE":0,"CLASSIFICATION_TYPE":"U","NORAD_CAT_ID":67989,"ELEMENT_SET_NO":999,"REV_AT_EPOCH":216,"BSTAR":-0.0032499484,"MEAN_MOTION_DOT":-0.01509481,"MEAN_MOTION_DDOT":0.00067936294}]
