STARLINK-36901          
1 67974U 26038P   26064.25003472 -.01466062  68740-3 -24762-2 0  9991
2 67974  97.2748  74.1851 0001215  68.2710  82.7957 16.02826231  2484
STARLINK-36883          
1 67975U 26038Q   26064.25003472 -.01407960  64234-3 -22922-2 0  9994
2 67975  97.2741  74.1905 0001247  69.1223  94.3580 16.03443623  2484
STARLINK-36880          
1 67976U 26038R   26064.25003472 -.01462149  68614-3 -24312-2 0  9996
2 67976  97.2744  74.1873 0001236  75.5310  80.5599 16.03092649  2483
STARLINK-36904          
1 67977U 26038S   26064.25003472 -.01456099  68294-3 -23848-2 0  9991
2 67977  97.2741  74.1891 0001320  70.5319  90.4572 16.03348818  2482
STARLINK-36364          
1 67978U 26038T   26064.25003472 -.01359955  60429-3 -21775-2 0  9994
2 67978  97.2736  74.1929 0001062  88.3301  80.9318 16.03718741  2488
STARLINK-36359          
1 67979U 26038U   26064.25003472 -.01459550  68472-3 -24120-2 0  9990
2 67979  97.2742  74.1876 0001083  80.5880  77.5898 16.03197569  2480
STARLINK-36882          
1 67980U 26038V   26064.25003472 -.01449360  67946-3 -23325-2 0  9991
2 67980  97.2737  74.1915 0001234  70.8448  95.6221 16.03644657  2486
STARLINK-36874          
1 67981U 26038W   26064.25003472 -.01442823  67576-3 -22882-2 0  9995
2 67981  97.2736  74.1937 0001224  67.7197 103.5215 16.03891038  2484
STARLINK-36879          
1 67982U 26038X   26064.25003472 -.01441195  67538-3 -22682-2 0  9993
2 67982  97.2734  74.1947 0001137  75.3224  98.3825 16.04019541  2483
STARLINK-36867          
1 67983U 26038Y   26064.25003472 -.01442455  67870-3 -22334-2 0  9997
2 67983  97.2733  74.1971 0001246  68.0859 110.6056 16.04293421  2489
STARLINK-36266          
1 67984U 26038Z   26064.25003472 -.01448838  68333-3 -22591-2 0  9999
2 67984  97.2733  74.1960 0001188  70.4879 105.9435 16.04176247  2453
STARLINK-36802          
1 67985U 26038AA  26064.25003472 -.01426284  66546-3 -21945-2 0  9997
2 67985  97.2730  74.1976 0001186  76.9567 103.8067 16.04396234  2482
STARLINK-36535          
1 67986U 26039A   26064.25003472 -.01530125  69376-3 -33663-2 0  9993
2 67986  42.9977  82.4945 0001450 271.9121 239.9616 15.97255116  2168
STARLINK-36744          
1 67987U 26039B   26064.25003472 -.01510172  67799-3 -33015-2 0  9992
2 67987  42.9975  82.4909 0001561 268.2055 245.0377 15.97365578  2161
STARLINK-36734          
1 67988U 26039C   26064.25003472 -.01513307  68163-3 -32814-2 0  9998
2 67988  42.9977  82.4865 0001583 271.2287 243.6877 15.97513133  2161
STARLINK-36957          
1 67989U 26039D   26064.25003472 -.01509481  67936-3 -32499-2 0  9993
2 67989  42.9975  82.4828 0001491 272.4984 243.7417 15.97640341  2167
